GSAT0227 (GALILEO 30)
1 59600U 24079C   25332.39206605  .00000053  00000+0  00000+0 0  9994
2 59600  54.9877 106.6957 0003525 113.0968 246.9214  1.70474627  9947